[{"OBJECT_NAME":"TEVEL2-6","OBJECT_ID":"2025-052F","EPOCH":"2026-03-09T15:35:24.554400","MEAN_MOTION":15.30760889,"ECCENTRICITY":0.0004769,"INCLINATION":97.4016,"RA_OF_ASC_NODE":325.0381,"ARG_OF_PERICENTER":95.6604,"MEAN_ANOMALY":264.5181,"EPHEMERIS_TYPE":0,"CLASSIFICATION_TYPE":"U","NORAD_CAT_ID":63215,"ELEMENT_SET_NO":999,"REV_AT_EPOCH":5486,"BSTAR":0.00070909,"MEAN_MOTION_DOT":0.00021046,"MEAN_MOTION_DDOT":0},{"OBJECT_NAME":"STARLINK-34176","OBJECT_ID":"2025-110J","EPOCH":"2026-03-09T06:17:54.905856","MEAN_MOTION":15.30200848,"ECCENTRICITY":0.00010186,"INCLINATION":53.1611,"RA_OF_ASC_NODE":28.9913,"ARG_OF_PERICENTER":111.9699,"MEAN_ANOMALY":248.141,"EPHEMERIS_TYPE":0,"CLASSIFICATION_TYPE":"U","NORAD_CAT_ID":64104,"ELEMENT_SET_NO":999,"REV_AT_EPOCH":4581,"BSTAR":0.00054566049,"MEAN_MOTION_DOT":0.00015837,"MEAN_MOTION_DDOT":0}]
