TEVEL2-6                
1 63215U 25052F   26068.64958975  .00021046  00000+0  70909-3 0  9996
2 63215  97.4016 325.0381 0004769  95.6604 264.5181 15.30760889 54861
STARLINK-34176          
1 64104U 25110J   26068.26244104  .00015837  00000+0  54566-3 0  9991
2 64104  53.1611  28.9913 0001018 111.9699 248.1410 15.30200848 45811
